#aV2019 12 14  0  0  0.00000000     288 DD+AD WGS84 FIT  NGA
## 2083 518400.00000000   300.00000000 58831 0.0000000000000
+   32     1  2  3  4  5  6  7  8  9 10 11 12 13 14 15 16 17
+         18 19 20 21 22 23 24 25 26 27 28 29 30 31 32  0  0
+          0  0  0  0  0  0  0  0  0  0  0  0  0  0  0  0  0
+          0  0  0  0  0  0  0  0  0  0  0  0  0  0  0  0  0
+          0  0  0  0  0  0  0  0  0  0  0  0  0  0  0  0  0
++         2  2  2  2  2  2  2  2  2  2  2  2  2  2  2  2  2
++         2  2  2  2  2  2  2  2  2  2  2  2  2  2  2  0  0
++         0  0  0  0  0  0  0  0  0  0  0  0  0  0  0  0  0
++         0  0  0  0  0  0  0  0  0  0  0  0  0  0  0  0  0
++         0  0  0  0  0  0  0  0  0  0  0  0  0  0  0  0  0
%c cc cc ccc ccc cccc cccc cccc cccc ccccc ccccc ccccc ccccc
%c cc cc ccc ccc cccc cccc cccc cccc ccccc ccccc ccccc ccccc
%f  0.0000000  0.000000000  0.00000000000  0.000000000000000
%f  0.0000000  0.000000000  0.00000000000  0.000000000000000
%i    0    0    0    0      0      0      0      0         0
%i    0    0    0    0      0      0      0      0         0
/*      NGA, ST. LOUIS,MO.                                  
/*   EPHEMERIS COMPUTED FROM 2 DAYS OF DATA                 
/*   EPOCHA v5 SMOOTHER                                     
/*   G1762 IERS2010 SATAF SATAPC                            
*  2019 12 14  7 25  0.00000000
P  1  20385.835356  11684.117069  12487.417692   -229.135764                    
V  1   8830.511817  13487.744410 -26291.564655     -0.123334                    
P  2 -12595.949839 -22070.917258   8543.544540   -366.002015                    
V  2   8647.989517   5534.557710  29108.475606     -0.074217                    
P  3  15685.922640    328.074926  21358.991434    -52.662089                    
V  3  -8969.025625  25753.428317   6261.139883     -0.067193                    
P  4  25527.048177   1599.495522   7202.090893    -20.440721                    
V  4  -8684.623227   3904.743495  29923.089373     -0.046316                    
P  5  -5640.892830 -20044.660820 -16509.849696     -4.674514                    
V  5   8671.799244 -19038.357339  20511.813650     -0.004991                    
P  6  -1087.731971 -19881.452932  17613.855875   -153.039064                    
V  6  15256.309285  16234.016917  19348.312335     -0.111201                    
P  7  15427.116125  -4498.890297 -20938.145352   -169.616904                    
V  7  16662.661389  21485.653413   7088.971926     -0.082313                    
P  8  20399.321128   7093.253654 -15573.180991    -16.696887                    
V  8 -19103.840462   5198.720168 -22381.173662     -0.012998                    
P  9  25400.180019  -7073.870194  -3286.580514   -107.697513                    
V  9   4597.472780   2255.139201  31188.033228     -0.093583                    
P 10 -11428.603547  23535.335648  -3724.153250   -171.560947                    
V 10  -1019.585215  -5535.262062 -31512.296328     -0.142218                    
P 11  24854.907301   7317.543167   4536.316874   -419.886293                    
V 11   4017.571614   6841.932189 -30084.444792      0.110291                    
P 12 -13375.273629  -6055.341540  21915.927486    173.390818                    
V 12  11588.129555 -25815.483864    103.021379     -0.040258                    
P 13 -12391.549886 -13050.890671 -19682.128082    -26.762779                    
V 13  24614.069863  -2133.275175 -14096.458231      0.024275                    
P 14  -2014.042435  15493.141109  21788.119561    -44.933003                    
V 14 -26852.490130   1953.086029  -4109.733645      0.022406                    
P 15 -21647.486981  -5640.218167 -14902.327889   -265.811213                    
V 15  17047.692390  -7206.534460 -22105.710262      0.026889                    
P 16   2186.476268  20806.457032 -16283.608252   -102.856493                    
V 16 -10305.563733  17745.967257  21980.101094     -0.038528                    
P 17  13634.579477 -13889.498382  18466.883514    180.416193                    
V 17  22532.256489  -1434.537071 -18204.536787      0.066802                    
P 18  19829.444753  17085.949955   4281.942846    106.578725                    
V 18   1986.479202   6397.729155 -30988.924720      0.024785                    
P 19   6214.543561 -14511.378125  21069.959193   -226.563892                    
V 19  27357.702950  -1185.476906  -8750.427709      0.051775                    
P 20 -14519.915535  17419.154535 -13762.135660    527.652891                    
V 20   1073.836742 -17680.512091 -23879.622769      0.000655                    
P 21 -12402.878923   8688.465872 -21020.352953    -71.176288                    
V 21 -19310.996766 -21135.824077   2771.932069      0.057611                    
P 22  13817.179718   8967.025669  21065.813671   -777.432549                    
V 22  -7777.497813  25198.223330  -5578.552086     -0.019623                    
P 23  26081.666415   -321.198931   6342.558852   -149.662521                    
V 23  -6868.068226   4236.000360  29737.882783      0.023561                    
P 24 -21439.208548 -12259.524149  10055.070926     -6.188879                    
V 24  -6680.463415 -11470.965054 -27371.585300     -0.005143                    
P 25 -16747.738436   9492.420817  17962.065885    -17.338761                    
V 25   6605.295106 -22439.029084  18059.929334      0.001941                    
P 26  -3060.464038  25266.690818  -7230.007108    105.293944                    
V 26  -5955.795119   7723.406042  29796.661885      0.081840                    
P 27   9488.394041  12947.322058 -21332.259924   -149.876072                    
V 27 -26250.132091   4934.596622  -8419.933839     -0.116242                    
P 28  12457.177593 -23428.788660  -1636.275613    750.694184                    
V 28    716.470278   3449.838766 -32001.330118     -0.019352                    
P 29 -26053.701021   4460.168030  -2752.951174     19.004932                    
V 29  -3631.271614  -1637.231714  32028.873781     -0.098637                    
P 30   7039.676978 -15354.346322 -20425.534228   -105.547658                    
V 30  16790.046361  20048.149609  -9464.956047     -0.086035                    
P 31   2366.910175  20997.811859  15776.744756     -9.681086                    
V 31 -14280.632982 -14567.886167  21948.124580     -0.025604                    
P 32 -12570.639787  15057.276236  17906.535173    154.932990                    
V 32 -22637.038228   2239.823068 -17965.227526      0.114099                    
EOF
